NORAD_CAT_ID,OBJECT_NAME,OBJECT_TYPE,EPOCH,MEAN_MOTION,ECCENTRICITY,INCLINATION,RA_OF_ASC_NODE,ARG_OF_PERICENTER,MEAN_ANOMALY,BSTAR,MEAN_MOTION_DOT,MEAN_MOTION_DDOT,TLE_LINE0,TLE_LINE1,TLE_LINE2,SEMIMAJOR_AXIS,PERIOD,APOGEE,PERIGEE,DECAYED
53590.0,STARLINK-4689,PAYLOAD,2024-02-06 08:15:54,15.0884447,0.000143,53.2157,66.63,107.7097,252.4051,-1.9536e-05,-5.99e-06,0.0,0 STARLINK-4689,1 53590U 22104C   24037.34438579 -.00000599  00000-0 -19536-4 0  9993,2 53590  53.2157  66.6300 0001430 107.7097 252.4051 15.08844470 79834,6917.867,95.437,540.721,538.742,0.0
53590.0,STARLINK-4689,PAYLOAD,2024-02-07 01:45:09,15.08836275,0.0001639,53.2165,63.3598,105.4247,254.6926,3.373e-05,2.49e-06,0.0,0 STARLINK-4689,1 53590U 22104C   24038.07303072  .00000249  00000-0  33730-4 0  9995,2 53590  53.2165  63.3598 0001639 105.4247 254.6926 15.08836275 79940,6917.892,95.438,540.891,538.623,0.0
53590.0,STARLINK-4689,PAYLOAD,2024-02-07 08:06:42,15.08842222,0.0001491,53.216,62.1694,97.2644,262.8518,2.2006e-05,6.2e-07,0.0,0 STARLINK-4689,1 53590U 22104C   24038.33798823  .00000062  00000-0  22006-4 0  9993,2 53590  53.2160  62.1694 0001491  97.2644 262.8518 15.08842222 81023,6917.874,95.437,540.77,538.707,0.0
53590.0,STARLINK-4689,PAYLOAD,2024-02-08 07:57:29,15.08844715,0.0001533,53.2171,57.7083,99.1055,261.0111,9.6548e-05,1.249e-05,0.0,0 STARLINK-4689,1 53590U 22104C   24039.33158706  .00001249  00000-0  96548-4 0  9994,2 53590  53.2171  57.7083 0001533  99.1055 261.0111 15.08844715 80131,6917.866,95.437,540.791,538.67,0.0
53590.0,STARLINK-4689,PAYLOAD,2024-02-09 01:26:44,15.08837216,0.0001677,53.2177,54.4375,104.1142,256.0037,8.1003e-06,-1.59e-06,0.0,0 STARLINK-4689,1 53590U 22104C   24040.06023589 -.00000159  00000-0  81003-5 0  9997,2 53590  53.2177  54.4375 0001677 104.1142 256.0037 15.08837216 80249,6917.889,95.438,540.914,538.594,0.0
53590.0,STARLINK-4689,PAYLOAD,2024-02-09 07:48:16,15.08840217,0.000159,53.2178,53.2486,98.3757,261.7415,5.6486e-05,6.11e-06,0.0,0 STARLINK-4689,1 53590U 22104C   24040.32519297  .00000611  00000-0  56486-4 0  9990,2 53590  53.2178  53.2486 0001590  98.3757 261.7415 15.08840217 81328,6917.88,95.438,540.845,538.645,0.0
53590.0,STARLINK-4689,PAYLOAD,2024-02-10 07:39:04,15.08839187,0.0001707,53.2185,48.7928,104.8324,255.2858,4.1682e-05,3.75e-06,0.0,0 STARLINK-4689,1 53590U 22104C   24041.31879645  .00000375  00000-0  41682-4 0  9995,2 53590  53.2185  48.7928 0001707 104.8324 255.2858 15.08839187 80433,6917.883,95.438,540.929,538.567,0.0
53590.0,STARLINK-4689,PAYLOAD,2024-02-11 09:05:14,15.08842434,0.0001534,53.2179,44.0273,95.2304,264.8863,8.7505e-05,1.105e-05,0.0,0 STARLINK-4689,1 53590U 22104C   24042.37863502  .00001105  00000-0  87505-4 0  9993,2 53590  53.2179  44.0273 0001534  95.2304 264.8863 15.08842434 80595,6917.873,95.437,540.799,538.677,0.0
53590.0,STARLINK-4689,PAYLOAD,2024-02-12 08:56:00,15.08852863,0.0001772,53.2197,39.5643,83.6176,276.5018,0.00025705,3.807e-05,0.0,0 STARLINK-4689,1 53590U 22104C   24043.37222575  .00003807  00000-0  25705-3 0  9997,2 53590  53.2197  39.5643 0001772  83.6176 276.5018 15.08852863 80743,6917.841,95.437,540.932,538.48,0.0
53590.0,STARLINK-4689,PAYLOAD,2024-02-13 04:00:38,15.08841037,0.0001969,53.2184,35.9982,112.9849,247.1351,1.1378e-05,-1.07e-06,0.0,0 STARLINK-4689,1 53590U 22104C   24044.16711749 -.00000107  00000-0  11378-4 0  9994,2 53590  53.2184  35.9982 0001969 112.9849 247.1351 15.08841037 80864,6917.877,95.437,541.104,538.38,0.0
53590.0,STARLINK-4689,PAYLOAD,2024-02-13 05:36:02,15.08839421,0.0001801,53.2192,35.7051,79.411,280.7085,4.1104e-05,3.66e-06,0.0,0 STARLINK-4689,1 53590U 22104C   24044.23336180  .00000366  00000-0  41104-4 0  9990,2 53590  53.2192  35.7051 0001801  79.4110 280.7085 15.08839421 81919,6917.882,95.438,540.993,538.501,0.0
53590.0,STARLINK-4689,PAYLOAD,2024-02-13 16:43:41,15.08872812,0.0001353,53.2187,33.6187,109.3269,250.7869,0.00028428,4.243e-05,0.0,0 STARLINK-4689,1 53590U 22104C   24044.69700604  .00004243  00000-0  28428-3 0  9997,2 53590  53.2187  33.6187 0001353 109.3269 250.7869 15.08872812 80940,6917.78,95.435,540.581,538.709,0.0
53590.0,STARLINK-4689,PAYLOAD,2024-02-13 23:05:13,15.08877507,0.0001656,53.2196,32.431,107.3393,252.7781,0.00015602,2.198e-05,0.0,0 STARLINK-4689,1 53590U 22104C   24044.96196404  .00002198  00000-0  15602-3 0  9991,2 53590  53.2196  32.4310 0001656 107.3393 252.7781 15.08877507 82029,6917.766,95.435,540.776,538.485,0.0
53590.0,STARLINK-4689,PAYLOAD,2024-02-14 03:51:25,15.08840101,0.0001498,53.219,31.5373,82.4214,277.6948,-0.00014684,-2.624e-05,0.0,0 STARLINK-4689,1 53590U 22104C   24045.16071429 -.00002624  00000-0 -14684-3 0  9998,2 53590  53.2190  31.5373 0001498  82.4214 277.6948 15.08840101 81010,6917.88,95.438,540.781,538.709,0.0
53590.0,STARLINK-4689,PAYLOAD,2024-02-14 08:37:35,15.0883949,0.0001539,53.2183,30.6451,93.5922,266.5246,-0.00015294,-2.721e-05,0.0,0 STARLINK-4689,1 53590U 22104C   24045.35943406 -.00002721  00000-0 -15294-3 0  9998,2 53590  53.2183  30.6451 0001539  93.5922 266.5246 15.08839490 82089,6917.882,95.438,540.812,538.682,0.0
53590.0,STARLINK-4689,PAYLOAD,2024-02-14 16:34:31,15.08835311,0.0001562,53.2182,29.1584,96.0005,264.1165,-0.00017893,-3.134e-05,0.0,0 STARLINK-4689,1 53590U 22104C   24045.69063767 -.00003134  00000-0 -17893-3 0  9994,2 53590  53.2182  29.1584 0001562  96.0005 264.1165 15.08835311 82132,6917.895,95.438,540.84,538.679,0.0
53590.0,STARLINK-4689,PAYLOAD,2024-02-15 02:06:50,15.08823663,0.0001503,53.2185,27.3759,90.778,269.3385,-8.3175e-05,-1.611e-05,0.0,0 STARLINK-4689,1 53590U 22104C   24046.08808838 -.00001611  00000-0 -83175-4 0  9999,2 53590  53.2185  27.3759 0001503  90.7780 269.3385 15.08823663 81154,6917.93,95.439,540.835,538.756,0.0
53590.0,STARLINK-4689,PAYLOAD,2024-02-15 08:28:22,15.08832442,0.0001688,53.219,26.1847,103.6458,256.4722,-3.4135e-05,-8.31e-06,0.0,0 STARLINK-4689,1 53590U 22104C   24046.35304244 -.00000831  00000-0 -34135-4 0  9996,2 53590  53.2190  26.1847 0001688 103.6458 256.4722 15.08832442 81196,6917.903,95.438,540.936,538.601,0.0
53590.0,STARLINK-4689,PAYLOAD,2024-02-15 22:46:49,15.08884157,0.0001508,53.2192,23.5082,102.1799,257.9362,-0.00076143,-0.000124,0.0,0 STARLINK-4689,1 53590U 22104C   24046.94918249 -.00012400  00000-0 -76143-3 0  9996,2 53590  53.2192  23.5082 0001508 102.1799 257.9362 15.08884157 82325,6917.745,95.435,540.654,538.567,0.0
53590.0,STARLINK-4689,PAYLOAD,2024-02-16 05:08:22,15.08849539,0.000155,53.2182,22.3206,108.3568,251.7593,8.0018e-06,-1.61e-06,0.0,0 STARLINK-4689,1 53590U 22104C   24047.21414899 -.00000161  00000-0  80018-5 0  9997,2 53590  53.2182  22.3206 0001550 108.3568 251.7593 15.08849539 81320,6917.851,95.437,540.788,538.644,0.0
53590.0,STARLINK-4689,PAYLOAD,2024-02-16 08:19:09,15.08834743,0.0001567,53.218,21.7242,91.3021,268.8151,0.00030955,4.641e-05,0.0,0 STARLINK-4689,1 53590U 22104C   24047.34664165  .00004641  00000-0  30955-3 0  9993,2 53590  53.2180  21.7242 0001567  91.3021 268.8151 15.08834743 82381,6917.896,95.438,540.845,538.677,0.0
53590.0,STARLINK-4689,PAYLOAD,2024-02-16 22:37:38,15.08829882,0.0001568,53.2176,19.0491,95.6602,264.4569,0.00015703,2.211e-05,0.0,0 STARLINK-4689,1 53590U 22104C   24047.94280812  .00002211  00000-0  15703-3 0  9997,2 53590  53.2176  19.0491 0001568  95.6602 264.4569 15.08829882 82478,6917.911,95.438,540.861,538.692,0.0
53590.0,STARLINK-4689,PAYLOAD,2024-02-17 14:31:29,15.08842096,0.0001722,53.2174,16.0789,85.5606,274.5583,0.00015238,2.138e-05,0.0,0 STARLINK-4689,1 53590U 22104C   24048.60520348  .00002138  00000-0  15238-3 0  9993,2 53590  53.2174  16.0789 0001722  85.5606 274.5583 15.08842096 82578,6917.874,95.437,540.93,538.548,0.0
53590.0,STARLINK-4689,PAYLOAD,2024-02-17 20:53:02,15.08839518,0.0001499,53.2188,14.8921,91.2644,268.8519,0.00017063,2.429e-05,0.0,0 STARLINK-4689,1 53590U 22104C   24048.87016474  .00002429  00000-0  17063-3 0  9993,2 53590  53.2188  14.8921 0001499  91.2644 268.8519 15.08839518 82619,6917.882,95.438,540.784,538.71,0.0
53590.0,STARLINK-4689,PAYLOAD,2024-02-18 14:22:16,15.08843926,0.000169,53.2191,11.6208,97.2132,262.9053,4.1655e-05,3.75e-06,0.0,0 STARLINK-4689,1 53590U 22104C   24049.59880290  .00000375  00000-0  41655-4 0  9991,2 53590  53.2191  11.6208 0001690  97.2132 262.9053 15.08843926 82725,6917.868,95.437,540.903,538.564,0.0
53590.0,STARLINK-4689,PAYLOAD,2024-02-18 20:43:49,15.08844191,0.0001671,53.2188,10.431,94.8315,265.2868,0.00018239,2.616e-05,0.0,0 STARLINK-4689,1 53590U 22104C   24049.86376311  .00002616  00000-0  18239-3 0  9996,2 53590  53.2188  10.4310 0001671  94.8315 265.2868 15.08844191 81721,6917.868,95.437,540.889,538.577,0.0
53590.0,STARLINK-4689,PAYLOAD,2024-02-19 14:13:03,15.08842928,0.0001777,53.2185,7.1567,79.4617,280.6576,5.743e-05,6.26e-06,0.0,0 STARLINK-4689,1 53590U 22104C   24050.59240256  .00000626  00000-0  57430-4 0  9992,2 53590  53.2185   7.1567 0001777  79.4617 280.6576 15.08842928 82876,6917.871,95.437,540.966,538.507,0.0
53590.0,STARLINK-4689,PAYLOAD,2024-02-19 20:34:36,15.08839895,0.0002378,53.2183,5.9699,81.4151,278.7111,0.00011012,1.465e-05,0.0,0 STARLINK-4689,1 53590U 22104C   24050.85736722  .00001465  00000-0  11012-3 0  9996,2 53590  53.2183   5.9699 0002378  81.4151 278.7111 15.08839895 81871,6917.881,95.438,541.391,538.101,0.0
53590.0,STARLINK-4689,PAYLOAD,2024-02-20 02:56:09,15.08827779,0.00013,53.2179,4.7805,84.5851,275.5289,-7.241e-05,-1.44e-05,0.0,0 STARLINK-4689,1 53590U 22104C   24051.12233161 -.00001440  00000-0 -72410-4 0  9991,2 53590  53.2179   4.7805 0001300  84.5851 275.5289 15.08827779 81911,6917.918,95.438,540.682,538.883,0.0
53590.0,STARLINK-4689,PAYLOAD,2024-02-20 06:06:55,15.08837829,0.0001522,53.2177,4.1849,83.8629,276.2537,4.3016e-05,3.97e-06,0.0,0 STARLINK-4689,1 53590U 22104C   24051.25480758  .00000397  00000-0  43016-4 0  9999,2 53590  53.2177   4.1849 0001522  83.8629 276.2537 15.08837829 81935,6917.887,95.438,540.805,538.699,0.0
